start=new Date('2022-11-13T00:00:00.000Z').valueOf();
sats=[{"ARG_OF_PERICENTER":"160.9438","CLASSIFICATION_TYPE":"U","DECAY_DATE":null,"EPOCH":"2022-11-12T21:39:43.688736","RA_OF_ASC_NODE":"76.0564","MEAN_MOTION":"15.01290141","REV_AT_EPOCH":"1402","EPHEMERIS_TYPE":"0","MEAN_ANOMALY":"199.1817","TLE_LINE2":"2 53480  97.6544  76.0564 0000817 160.9438 199.1817 15.01290141 14029","RCS_SIZE":"LARGE","SITE":"AFWTR","ECCENTRICITY":"0.00008170","GP_ID":"217590562","LAUNCH_DATE":"2022-08-12","ELEMENT_SET_NO":"999","OBJECT_TYPE":"PAYLOAD","BSTAR":"0.00055798000000","INCLINATION":"97.6544","CENTER_NAME":"EARTH","COUNTRY_CODE":"US","MEAN_MOTION_DOT":"0.00007121","MEAN_MOTION_DDOT":"0.0000000000000","OBJECT_ID":"2022-099R","OBJECT_NAME":"STARLINK-4442","FILE":"3652635","APOAPSIS":"563.486","TIME_SYSTEM":"UTC","REF_FRAME":"TEME","MEAN_ELEMENT_THEORY":"SGP4","TLE_LINE1":"1 53480U 22099R   22316.90258899  .00007121  00000-0  55798-3 0  9994","PERIAPSIS":"562.352","NORAD_CAT_ID":"53480","SEMIMAJOR_AXIS":"6941.054","PERIOD":"95.918"},{"PERIOD":"95.918","SEMIMAJOR_AXIS":"6941.069","APOAPSIS":"563.718","MEAN_ELEMENT_THEORY":"SGP4","REF_FRAME":"TEME","TIME_SYSTEM":"UTC","TLE_LINE1":"1 53481U 22099S   22316.89704601  .00013339  00000-0  10405-2 0  9993","NORAD_CAT_ID":"53481","PERIAPSIS":"562.150","COUNTRY_CODE":"US","CENTER_NAME":"EARTH","MEAN_MOTION_DOT":"0.00013339","MEAN_MOTION_DDOT":"0.0000000000000","OBJECT_ID":"2022-099S","OBJECT_NAME":"STARLINK-4302","FILE":"3652635","INCLINATION":"97.6573","OBJECT_TYPE":"PAYLOAD","BSTAR":"0.00104050000000","ELEMENT_SET_NO":"999","ECCENTRICITY":"0.00011290","SITE":"AFWTR","GP_ID":"217589799","LAUNCH_DATE":"2022-08-12","MEAN_ANOMALY":"358.4037","TLE_LINE2":"2 53481  97.6573  76.0550 0001129   1.7191 358.4037 15.01285289 14023","RCS_SIZE":"LARGE","MEAN_MOTION":"15.01285289","EPHEMERIS_TYPE":"0","REV_AT_EPOCH":"1402","CLASSIFICATION_TYPE":"U","ARG_OF_PERICENTER":"1.7191","EPOCH":"2022-11-12T21:31:44.775264","DECAY_DATE":null,"RA_OF_ASC_NODE":"76.0550"},{"APOAPSIS":"563.545","TIME_SYSTEM":"UTC","MEAN_ELEMENT_THEORY":"SGP4","REF_FRAME":"TEME","TLE_LINE1":"1 53482U 22099T   22316.89727872  .00006676  00000-0  52366-3 0  9998","PERIAPSIS":"562.383","NORAD_CAT_ID":"53482","SEMIMAJOR_AXIS":"6941.099","PERIOD":"95.918","BSTAR":"0.00052366000000","OBJECT_TYPE":"PAYLOAD","ELEMENT_SET_NO":"999","INCLINATION":"97.6568","CENTER_NAME":"EARTH","COUNTRY_CODE":"US","MEAN_MOTION_DOT":"0.00006676","MEAN_MOTION_DDOT":"0.0000000000000","OBJECT_NAME":"STARLINK-4360","OBJECT_ID":"2022-099T","FILE":"3652635","MEAN_ANOMALY":"7.4362","TLE_LINE2":"2 53482  97.6568  76.0537 0000837 352.6850   7.4362 15.01275553 14023","RCS_SIZE":"LARGE","SITE":"AFWTR","ECCENTRICITY":"0.00008370","LAUNCH_DATE":"2022-08-12","GP_ID":"217590402","ARG_OF_PERICENTER":"352.6850","CLASSIFICATION_TYPE":"U","EPOCH":"2022-11-12T21:32:04.881408","DECAY_DATE":null,"RA_OF_ASC_NODE":"76.0537","MEAN_MOTION":"15.01275553","REV_AT_EPOCH":"1402","EPHEMERIS_TYPE":"0"},{"MEAN_ANOMALY":"346.4998","TLE_LINE2":"2 53483  97.6577  76.0687 0002455  13.6292 346.4998 15.01272452 14028","RCS_SIZE":"LARGE","SITE":"AFWTR","ECCENTRICITY":"0.00024550","LAUNCH_DATE":"2022-08-12","GP_ID":"217589969","ARG_OF_PERICENTER":"13.6292","CLASSIFICATION_TYPE":"U","EPOCH":"2022-11-12T21:24:06.003360","DECAY_DATE":null,"RA_OF_ASC_NODE":"76.0687","MEAN_MOTION":"15.01272452","REV_AT_EPOCH":"1402","EPHEMERIS_TYPE":"0","APOAPSIS":"564.678","TIME_SYSTEM":"UTC","MEAN_ELEMENT_THEORY":"SGP4","REF_FRAME":"TEME","TLE_LINE1":"1 53483U 22099U   22316.89173615  .00005085  00000-0  40007-3 0  9991","PERIAPSIS":"561.269","NORAD_CAT_ID":"53483","SEMIMAJOR_AXIS":"6941.108","PERIOD":"95.919","OBJECT_TYPE":"PAYLOAD","ELEMENT_SET_NO":"999","BSTAR":"0.00040007000000","INCLINATION":"97.6577","CENTER_NAME":"EARTH","COUNTRY_CODE":"US","MEAN_MOTION_DDOT":"0.0000000000000","MEAN_MOTION_DOT":"0.00005085","OBJECT_ID":"2022-099U","OBJECT_NAME":"STARLINK-4401","FILE":"3652635"},{"RCS_SIZE":"LARGE","MEAN_ANOMALY":"329.3748","TLE_LINE2":"2 53484  97.6598  76.0637 0001641  30.7572 329.3748 15.01280965 14025","LAUNCH_DATE":"2022-08-12","GP_ID":"217590299","ECCENTRICITY":"0.00016410","SITE":"AFWTR","EPOCH":"2022-11-12T21:29:03.453504","DECAY_DATE":null,"RA_OF_ASC_NODE":"76.0637","CLASSIFICATION_TYPE":"U","ARG_OF_PERICENTER":"30.7572","EPHEMERIS_TYPE":"0","REV_AT_EPOCH":"1402","MEAN_MOTION":"15.01280965","TLE_LINE1":"1 53484U 22099V   22316.89517886  .00004902  00000-0  38580-3 0  9994","NORAD_CAT_ID":"53484","PERIAPSIS":"561.808","APOAPSIS":"564.086","MEAN_ELEMENT_THEORY":"SGP4","REF_FRAME":"TEME","TIME_SYSTEM":"UTC","PERIOD":"95.918","SEMIMAJOR_AXIS":"6941.082","INCLINATION":"97.6598","OBJECT_TYPE":"PAYLOAD","ELEMENT_SET_NO":"999","BSTAR":"0.00038580000000","OBJECT_ID":"2022-099V","OBJECT_NAME":"STARLINK-4426","FILE":"3652635","COUNTRY_CODE":"US","CENTER_NAME":"EARTH","MEAN_MOTION_DOT":"0.00004902","MEAN_MOTION_DDOT":"0.0000000000000"},{"PERIOD":"95.918","SEMIMAJOR_AXIS":"6941.071","NORAD_CAT_ID":"53485","PERIAPSIS":"561.116","TLE_LINE1":"1 53485U 22099W   22316.88962961  .00006814  00000-0  53424-3 0  9990","MEAN_ELEMENT_THEORY":"SGP4","REF_FRAME":"TEME","TIME_SYSTEM":"UTC","APOAPSIS":"564.755","FILE":"3652635","OBJECT_ID":"2022-099W","OBJECT_NAME":"STARLINK-4430","MEAN_MOTION_DOT":"0.00006814","MEAN_MOTION_DDOT":"0.0000000000000","COUNTRY_CODE":"US","CENTER_NAME":"EARTH","INCLINATION":"97.6580","BSTAR":"0.00053424000000","OBJECT_TYPE":"PAYLOAD","ELEMENT_SET_NO":"999","LAUNCH_DATE":"2022-08-12","GP_ID":"217589384","ECCENTRICITY":"0.00026210","SITE":"AFWTR","RCS_SIZE":"LARGE","TLE_LINE2":"2 53485  97.6580  76.0678 0002621   8.5619 351.5650 15.01284705 14021","MEAN_ANOMALY":"351.5650","EPHEMERIS_TYPE":"0","REV_AT_EPOCH":"1402","MEAN_MOTION":"15.01284705","RA_OF_ASC_NODE":"76.0678","EPOCH":"2022-11-12T21:21:03.998304","DECAY_DATE":null,"CLASSIFICATION_TYPE":"U","ARG_OF_PERICENTER":"8.5619"},{"INCLINATION":"97.6588","OBJECT_TYPE":"PAYLOAD","BSTAR":"0.00037819000000","ELEMENT_SET_NO":"999","FILE":"3652635","OBJECT_ID":"2022-099X","OBJECT_NAME":"STARLINK-4431","MEAN_MOTION_DDOT":"0.0000000000000","MEAN_MOTION_DOT":"0.00004805","COUNTRY_CODE":"US","CENTER_NAME":"EARTH","NORAD_CAT_ID":"53486","PERIAPSIS":"561.341","TLE_LINE1":"1 53486U 22099X   22316.89333009  .00004805  00000-0  37819-3 0  9995","MEAN_ELEMENT_THEORY":"SGP4","REF_FRAME":"TEME","TIME_SYSTEM":"UTC","APOAPSIS":"564.544","PERIOD":"95.918","SEMIMAJOR_AXIS":"6941.077","RA_OF_ASC_NODE":"76.0635","EPOCH":"2022-11-12T21:26:23.719776","DECAY_DATE":null,"CLASSIFICATION_TYPE":"U","ARG_OF_PERICENTER":"10.8035","EPHEMERIS_TYPE":"0","REV_AT_EPOCH":"1402","MEAN_MOTION":"15.01282591","RCS_SIZE":"LARGE","TLE_LINE2":"2 53486  97.6588  76.0635 0002307  10.8035 349.3238 15.01282591 14020","MEAN_ANOMALY":"349.3238","GP_ID":"217590139","LAUNCH_DATE":"2022-08-12","ECCENTRICITY":"0.00023070","SITE":"AFWTR"},{"APOAPSIS":"565.205","TIME_SYSTEM":"UTC","REF_FRAME":"TEME","MEAN_ELEMENT_THEORY":"SGP4","TLE_LINE1":"1 53487U 22099Y   22316.88592276  .00004573  00000-0  36028-3 0  9991","PERIAPSIS":"560.776","NORAD_CAT_ID":"53487","SEMIMAJOR_AXIS":"6941.125","PERIOD":"95.919","OBJECT_TYPE":"PAYLOAD","ELEMENT_SET_NO":"999","BSTAR":"0.00036028000000","INCLINATION":"97.6575","CENTER_NAME":"EARTH","COUNTRY_CODE":"US","MEAN_MOTION_DOT":"0.00004573","MEAN_MOTION_DDOT":"0.0000000000000","OBJECT_ID":"2022-099Y","OBJECT_NAME":"STARLINK-4432","FILE":"3652635","MEAN_ANOMALY":"343.7494","TLE_LINE2":"2 53487  97.6575  76.0669 0003191  16.3833 343.7494 15.01266943 14028","RCS_SIZE":"LARGE","SITE":"AFWTR","ECCENTRICITY":"0.00031910","LAUNCH_DATE":"2022-08-12","GP_ID":"217589554","ARG_OF_PERICENTER":"16.3833","CLASSIFICATION_TYPE":"U","DECAY_DATE":null,"EPOCH":"2022-11-12T21:15:43.726464","RA_OF_ASC_NODE":"76.0669","MEAN_MOTION":"15.01266943","REV_AT_EPOCH":"1402","EPHEMERIS_TYPE":"0"},{"SITE":"AFWTR","ECCENTRICITY":"0.00023680","LAUNCH_DATE":"2022-08-12","GP_ID":"217590563","TLE_LINE2":"2 53488  97.6572  76.0669 0002368   9.1254 351.0013 15.01276852 14027","MEAN_ANOMALY":"351.0013","RCS_SIZE":"LARGE","MEAN_MOTION":"15.01276852","REV_AT_EPOCH":"1402","EPHEMERIS_TYPE":"0","ARG_OF_PERICENTER":"9.1254","CLASSIFICATION_TYPE":"U","RA_OF_ASC_NODE":"76.0669","DECAY_DATE":null,"EPOCH":"2022-11-12T21:23:44.253888","SEMIMAJOR_AXIS":"6941.095","PERIOD":"95.918","TIME_SYSTEM":"UTC","REF_FRAME":"TEME","MEAN_ELEMENT_THEORY":"SGP4","APOAPSIS":"564.604","PERIAPSIS":"561.316","NORAD_CAT_ID":"53488","TLE_LINE1":"1 53488U 22099Z   22316.89148442  .00005172  00000-0  40678-3 0  9997","MEAN_MOTION_DDOT":"0.0000000000000","MEAN_MOTION_DOT":"0.00005172","CENTER_NAME":"EARTH","COUNTRY_CODE":"US","FILE":"3652635","OBJECT_NAME":"STARLINK-4421","OBJECT_ID":"2022-099Z","ELEMENT_SET_NO":"999","OBJECT_TYPE":"PAYLOAD","BSTAR":"0.00040678000000","INCLINATION":"97.6572"},{"RA_OF_ASC_NODE":"76.0683","DECAY_DATE":null,"EPOCH":"2022-11-12T21:13:04.257984","ARG_OF_PERICENTER":"18.2942","CLASSIFICATION_TYPE":"U","REV_AT_EPOCH":"1402","EPHEMERIS_TYPE":"0","MEAN_MOTION":"15.01291437","RCS_SIZE":"LARGE","TLE_LINE2":"2 53489  97.6570  76.0683 0003511  18.2942 341.8408 15.01291437 14029","MEAN_ANOMALY":"341.8408","LAUNCH_DATE":"2022-08-12","GP_ID":"217589800","SITE":"AFWTR","ECCENTRICITY":"0.00035110","BSTAR":"0.00068815000000","OBJECT_TYPE":"PAYLOAD","ELEMENT_SET_NO":"999","INCLINATION":"97.6570","FILE":"3652635","OBJECT_ID":"2022-099AA","OBJECT_NAME":"STARLINK-4392","MEAN_MOTION_DOT":"0.00008799","MEAN_MOTION_DDOT":"0.0000000000000","CENTER_NAME":"EARTH","COUNTRY_CODE":"US","PERIAPSIS":"560.478","NORAD_CAT_ID":"53489","TLE_LINE1":"1 53489U 22099AA  22316.88407706  .00008799  00000-0  68815-3 0  9999","TIME_SYSTEM":"UTC","REF_FRAME":"TEME","MEAN_ELEMENT_THEORY":"SGP4","APOAPSIS":"565.352","SEMIMAJOR_AXIS":"6941.050","PERIOD":"95.917"}];
